[
    {
        "CCSDS_OMM_VERS": "3.0",
        "COMMENT": "GENERATED VIA SPACE-TRACK.ORG API",
        "CREATION_DATE": "2025-05-03T17:28:03",
        "ORIGINATOR": "18 SPCS",
        "OBJECT_NAME": "BEIDOU 3M19",
        "OBJECT_ID": "2019-090A",
        "CENTER_NAME": "EARTH",
        "REF_FRAME": "TEME",
        "TIME_SYSTEM": "UTC",
        "MEAN_ELEMENT_THEORY": "SGP4",
        "EPOCH": "2025-05-03T07:36:30.888288",
        "MEAN_MOTION": "1.86231520",
        "ECCENTRICITY": "0.00194360",
        "INCLINATION": "56.1994",
        "RA_OF_ASC_NODE": "76.3761",
        "ARG_OF_PERICENTER": "290.7704",
        "MEAN_ANOMALY": "126.0226",
        "EPHEMERIS_TYPE": "0",
        "CLASSIFICATION_TYPE": "U",
        "NORAD_CAT_ID": "44864",
        "ELEMENT_SET_NO": "999",
        "REV_AT_EPOCH": "3660",
        "BSTAR": "0.00000000000000",
        "MEAN_MOTION_DOT": "-0.00000014",
        "MEAN_MOTION_DDOT": "0.0000000000000",
        "SEMIMAJOR_AXIS": "27906.137",
        "PERIOD": "773.231",
        "APOAPSIS": "21582.240",
        "PERIAPSIS": "21473.763",
        "OBJECT_TYPE": "PAYLOAD",
        "RCS_SIZE": "LARGE",
        "COUNTRY_CODE": "PRC",
        "LAUNCH_DATE": "2019-12-16",
        "SITE": "XSC",
        "DECAY_DATE": null,
        "FILE": "4717971",
        "GP_ID": "286762854",
        "TLE_LINE0": "0 BEIDOU 3M19",
        "TLE_LINE1": "1 44864U 19090A   25123.31702417 -.00000014  00000-0  00000-0 0  9999",
        "TLE_LINE2": "2 44864  56.1994  76.3761 0019436 290.7704 126.0226  1.86231520 36606"
    }
]